FENGYUN 3D              
1 43010U 17072A   26193.58871295 -.00000273  00000+0 -10709-3 0  9994
2 43010  99.0135 168.4715 0001721  20.4882 339.6362 14.19743274448598
NOAA 20 (JPSS-1)        
1 43013U 17073A   26193.58785012  .00000013  00000+0  27274-4 0  9995
2 43013  98.7773 132.8253 0001289 126.6905 233.4390 14.19516133448078
GOES 17                 
1 43226U 18022A   26193.47392667 -.00000182  00000+0  00000+0 0  9995
2 43226   0.9994  85.2958 0000537  85.4518 200.7377  1.00271494 30673
SENTINEL-3B             
1 43437U 18039A   26193.22606096  .00000035  00000+0  32510-4 0  9996
2 43437  98.6236 260.3977 0001066 119.2246 240.9041 14.26735854427692
FENGYUN 2H              
1 43491U 18050A   26193.64992032 -.00000130  00000+0  00000+0 0  9994
2 43491   3.0931  78.7741 0002269 132.8267  32.0806  1.00267395 29699
METOP-C                 
1 43689U 18087A   26193.54822621  .00000044  00000+0  40062-4 0  9998
2 43689  98.6632 252.6867 0002216  97.2699 262.8730 14.21518577398431
GEO-KOMPSAT-2A          
1 43823U 18100A   26193.61503384 -.00000343  00000+0  00000+0 0  9990
2 43823   0.0259 114.9705 0001938 346.8093 178.4030  1.00270990 27885
METEOR-M2 2             
1 44387U 19038A   26193.60347630 -.00000053  00000+0 -31860-5 0  9999
2 44387  98.9155 181.2651 0000904   9.1924 350.9270 14.24372003364912
ARKTIKA-M 1             
1 47719U 21016A   26188.42887598 -.00000257  00000+0  00000+0 0  9997
2 47719  63.2524  54.6812 7295086 270.0380  14.5466  2.00614486 39194
FENGYUN 3E              
1 49008U 21062A   26193.64023977  .00000081  00000+0  58833-4 0  9990
2 49008  98.7500 196.7643 0002361  44.0338 316.1026 14.19906171260198
GOES 18                 
1 51850U 22021A   26193.49142001  .00000098  00000+0  00000+0 0  9993
2 51850   0.0194 106.7622 0000626  89.5252 134.0088  1.00272836  6845
NOAA 21 (JPSS-2)        
1 54234U 22150A   26193.62018960 -.00000003  00000+0  19366-4 0  9993
2 54234  98.7061 131.9823 0002769 109.1574 250.9902 14.19540805190159
METEOSAT-12 (MTG-I1)    
1 54743U 22170C   26193.34900604 -.00000007  00000+0  00000+0 0  9998
2 54743   0.7220  19.1988 0003766  82.7591 313.6467  1.00267072 13230
TIANMU-1 03             
1 55973U 23039A   26193.58953522  .00009587  00000+0  18530-3 0  9994
2 55973  97.5235   8.5679 0002802  33.5626 326.5801 15.47994696184765
TIANMU-1 04             
1 55974U 23039B   26193.63362547  .00010467  00000+0  19780-3 0  9999
2 55974  97.5170   7.7697 0003282  22.4950 337.6443 15.48618415184785
TIANMU-1 05             
1 55975U 23039C   26193.57154792  .00010007  00000+0  19385-3 0  9995
2 55975  97.5216   8.1547 0003206  52.2972 307.8569 15.47917913184745
TIANMU-1 06             
1 55976U 23039D   26193.57401977  .00010278  00000+0  19496-3 0  9999
2 55976  97.5223   8.8188 0003320  44.4233 315.7283 15.48514535184770
FENGYUN 3G              
1 56232U 23055A   26193.51877659  .00014070  00000+0  22220-3 0  9994
2 56232  49.9907 215.3889 0007145  43.6314 316.5217 15.53706483183944
METEOR-M2 3             
1 57166U 23091A   26193.60366457 -.00000017  00000+0  11361-4 0  9992
2 57166  98.6069 248.0602 0005144  96.1188 264.0577 14.24048781158132
TIANMU-1 07             
1 57399U 23101A   26193.60760187  .00003639  00000+0  12747-3 0  9990
2 57399  97.2584 243.6944 0003902  69.9803 290.1857 15.30096482165531
TIANMU-1 08             
1 57400U 23101B   26193.63957279  .00003655  00000+0  12799-3 0  9991
2 57400  97.2573 243.4926 0004841  53.2429 306.9255 15.30100697165535
TIANMU-1 09             
1 57401U 23101C   26193.55700606  .00003846  00000+0  13439-3 0  9997
2 57401  97.2531 242.8147 0004524  70.7717 289.4013 15.30140589165520
TIANMU-1 10             
1 57402U 23101D   26193.65590050  .00003824  00000+0  13374-3 0  9993
2 57402  97.2610 243.9878 0005835  61.2553 298.9274 15.30114753165530
FENGYUN 3F              
1 57490U 23111A   26193.62354513 -.00000007  00000+0  17158-4 0  9996
2 57490  98.6826 263.1571 0001320  77.5064 282.6260 14.19943139152475
ARKTIKA-M 2             
1 58584U 23198A   26191.19028483  .00000186  00000+0  00000+0 0  9990
2 58584  63.2187 151.7914 6909064 267.3543  18.7503  2.00608615 18787
TIANMU-1 11             
1 58645U 23205A   26193.60814918  .00003174  00000+0  12159-3 0  9993
2 58645  97.3442 214.7691 0006759 273.7832  86.2635 15.27247673141402
TIANMU-1 12             
1 58646U 23205B   26193.58026241  .00003306  00000+0  12718-3 0  9993
2 58646  97.3431 214.4896 0005636 246.3499 113.7149 15.27078449141389
TIANMU-1 13             
1 58647U 23205C   26193.61369142  .00003305  00000+0  12717-3 0  9996
2 58647  97.3459 214.8016 0005542 223.2334 136.8470 15.27071562141388
TIANMU-1 14             
1 58648U 23205D   26193.59815852  .00003291  00000+0  12645-3 0  9992
2 58648  97.3395 213.9482 0006201 231.1990 128.8696 15.27115271141381
TIANMU-1 19             
1 58660U 23208A   26193.56824591  .00005119  00000+0  16851-3 0  9990
2 58660  97.4522 310.0064 0004344 208.3011 151.7995 15.31950500141215
