OBJECT_NAME,OBJECT_ID,EPOCH,MEAN_MOTION,ECCENTRICITY,INCLINATION,RA_OF_ASC_NODE,ARG_OF_PERICENTER,MEAN_ANOMALY,EPHEMERIS_TYPE,CLASSIFICATION_TYPE,NORAD_CAT_ID,ELEMENT_SET_NO,REV_AT_EPOCH,BSTAR,MEAN_MOTION_DOT,MEAN_MOTION_DDOT
FENGYUN 3D,2017-072A,2026-07-12T14:07:44.798880,14.19743274,.00017214,99.0135,168.4715,20.4882,339.6362,0,U,43010,999,44859,-.10709095E-3,-.273E-5,0
NOAA 20 (JPSS-1),2017-073A,2026-07-12T14:06:30.250368,14.19516133,.00012894,98.7773,132.8253,126.6905,233.4390,0,U,43013,999,44807,.27274137E-4,.13E-6,0
GOES 17,2018-022A,2026-07-12T11:22:27.264288,1.00271494,.00005375,0.9994,85.2958,85.4518,200.7377,0,U,43226,999,3067,0,-.182E-5,0
SENTINEL-3B,2018-039A,2026-07-12T05:25:31.666944,14.26735854,.0001066,98.6236,260.3977,119.2246,240.9041,0,U,43437,999,42769,.3251E-4,.35E-6,0
FENGYUN 2H,2018-050A,2026-07-12T15:35:53.115648,1.00267395,.0002269,3.0931,78.7741,132.8267,32.0806,0,U,43491,999,2969,0,-.13E-5,0
METOP-C,2018-087A,2026-07-12T13:09:26.744544,14.21518577,.00022168,98.6632,252.6867,97.2699,262.8730,0,U,43689,999,39843,.40061769E-4,.44E-6,0
GEO-KOMPSAT-2A,2018-100A,2026-07-12T14:45:38.923776,1.00270990,.00019382,0.0259,114.9705,346.8093,178.4030,0,U,43823,999,2788,0,-.343E-5,0
METEOR-M2 2,2019-038A,2026-07-12T14:29:00.352320,14.24372003,.00009046,98.9155,181.2651,9.1924,350.9270,0,U,44387,999,36491,-.3186005E-5,-.53E-6,0
ARKTIKA-M 1,2021-016A,2026-07-07T10:17:34.884672,2.00614486,.72950864,63.2524,54.6812,270.0380,14.5466,0,U,47719,999,3919,0,-.257E-5,0
FENGYUN 3E,2021-062A,2026-07-12T15:21:56.716128,14.19906171,.00023618,98.7500,196.7643,44.0338,316.1026,0,U,49008,999,26019,.5883339E-4,.81E-6,0
GOES 18,2022-021A,2026-07-12T11:47:38.688864,1.00272836,.00006262,0.0194,106.7622,89.5252,134.0088,0,U,51850,999,684,0,.98E-6,0
NOAA 21 (JPSS-2),2022-150A,2026-07-12T14:53:04.381440,14.19540805,.00027692,98.7061,131.9823,109.1574,250.9902,0,U,54234,999,19015,.19365719E-4,-.3E-7,0
METEOSAT-12 (MTG-I1),2022-170C,2026-07-12T08:22:34.121856,1.00267072,.00037668,0.7220,19.1988,82.7591,313.6467,0,U,54743,999,1323,0,-.7E-7,0
TIANMU-1 03,2023-039A,2026-07-12T14:08:55.843008,15.47994696,.00028025,97.5235,8.5679,33.5626,326.5801,0,U,55973,999,18476,.18530294E-3,.9587E-4,0
TIANMU-1 04,2023-039B,2026-07-12T15:12:25.240608,15.48618415,.00032827,97.5170,7.7697,22.4950,337.6443,0,U,55974,999,18478,.1978016E-3,.10467E-3,0
TIANMU-1 05,2023-039C,2026-07-12T13:43:01.740288,15.47917913,.00032065,97.5216,8.1547,52.2972,307.8569,0,U,55975,999,18474,.1938527E-3,.10007E-3,0
TIANMU-1 06,2023-039D,2026-07-12T13:46:35.308128,15.48514535,.00033202,97.5223,8.8188,44.4233,315.7283,0,U,55976,999,18477,.19496007E-3,.10278E-3,0
FENGYUN 3G,2023-055A,2026-07-12T12:27:02.297376,15.53706483,.00071454,49.9907,215.3889,43.6314,316.5217,0,U,56232,999,18394,.22219972E-3,.1407E-3,0
METEOR-M2 3,2023-091A,2026-07-12T14:29:16.618848,14.24048781,.00051449,98.6069,248.0602,96.1188,264.0577,0,U,57166,999,15813,.11360816E-4,-.17E-6,0
TIANMU-1 07,2023-101A,2026-07-12T14:34:56.801568,15.30096482,.00039028,97.2584,243.6944,69.9803,290.1857,0,U,57399,999,16553,.12746764E-3,.3639E-4,0
TIANMU-1 08,2023-101B,2026-07-12T15:20:59.089056,15.30100697,.00048416,97.2573,243.4926,53.2429,306.9255,0,U,57400,999,16553,.12799473E-3,.3655E-4,0
TIANMU-1 09,2023-101C,2026-07-12T13:22:05.323584,15.30140589,.00045248,97.2531,242.8147,70.7717,289.4013,0,U,57401,999,16552,.1343881E-3,.3846E-4,0
TIANMU-1 10,2023-101D,2026-07-12T15:44:29.803200,15.30114753,.00058359,97.2610,243.9878,61.2553,298.9274,0,U,57402,999,16553,.13374119E-3,.3824E-4,0
FENGYUN 3F,2023-111A,2026-07-12T14:57:54.299232,14.19943139,.00013204,98.6826,263.1571,77.5064,282.6260,0,U,57490,999,15247,.17158239E-4,-.7E-7,0
ARKTIKA-M 2,2023-198A,2026-07-10T04:34:00.609312,2.00608615,.69090643,63.2187,151.7914,267.3543,18.7503,0,U,58584,999,1878,0,.186E-5,0
TIANMU-1 11,2023-205A,2026-07-12T14:35:44.089152,15.27247673,.00067598,97.3442,214.7691,273.7832,86.2635,0,U,58645,999,14140,.12159185E-3,.3174E-4,0
TIANMU-1 12,2023-205B,2026-07-12T13:55:34.672224,15.27078449,.00056364,97.3431,214.4896,246.3499,113.7149,0,U,58646,999,14138,.12718041E-3,.3306E-4,0
TIANMU-1 13,2023-205C,2026-07-12T14:43:42.938688,15.27071562,.00055424,97.3459,214.8016,223.2334,136.8470,0,U,58647,999,14138,.12716733E-3,.3305E-4,0
TIANMU-1 14,2023-205D,2026-07-12T14:21:20.896128,15.27115271,.00062014,97.3395,213.9482,231.1990,128.8696,0,U,58648,999,14138,.12645428E-3,.3291E-4,0
TIANMU-1 19,2023-208A,2026-07-12T13:38:16.446624,15.31950500,.00043441,97.4522,310.0064,208.3011,151.7995,0,U,58660,999,14121,.16850526E-3,.5119E-4,0
